COSMO-SKYMED 2          
1 32376U 07059A   26167.14838854  .00000338  00000+0  48994-4 0  9996
2 32376  97.8886 350.7614 0001364  86.6770 273.4600 14.82154308  1855
COSMO-SKYMED 3          
1 33412U 08054A   26167.14714853  .00002684  00000+0  18359-3 0  9993
2 33412  97.8283  25.7007 0014275 270.8408  89.1183 15.06947432956787
COSMO-SKYMED 4          
1 37216U 10060A   26167.16105353  .00000188  00000+0  30180-4 0  9994
2 37216  97.8878 350.7757 0001422  79.9083 280.2290 14.82152817844410
CYGFM04                 
1 41885U 16078B   26166.61568708  .00025374  00000+0  28651-3 0  9995
2 41885  34.9319 238.7656 0006476 180.9512 179.1202 15.61441990528752
CYGFM02                 
1 41886U 16078C   26166.87462294  .00027394  00000+0  27484-3 0  9994
2 41886  34.9396 231.6122 0007525 184.3737 175.6924 15.64432101528963
CYGFM01                 
1 41887U 16078D   26166.69377457  .00021240  00000+0  28123-3 0  9996
2 41887  34.9401 271.5487 0006627 129.5981 230.5329 15.57292832528475
CYGFM03                 
1 41891U 16078H   26166.90600628  .00023549  00000+0  28065-3 0  9993
2 41891  34.9394 240.0351 0006372 170.2723 189.8127 15.60055421528776
CSG-1                   
1 44873U 19092A   26167.17370994  .00000351  00000+0  50692-4 0  9993
2 44873  97.8888 350.7909 0001456  89.4381 270.6999 14.82152488351327
CSG-2                   
1 51444U 22008A   26167.13993902  .00000643  00000+0  87316-4 0  9999
2 51444  97.8876 350.7527 0001444  85.0358 275.1020 14.82156584236435
CSG-3                   
1 67304U 26001A   26166.98384763  .00000246  00000+0  37496-4 0  9992
2 67304  97.8885 350.6030 0001355  94.2525 265.8843 14.82153056 24282
